NORAD_CAT_ID,OBJECT_NAME,OBJECT_TYPE,EPOCH,MEAN_MOTION,ECCENTRICITY,INCLINATION,RA_OF_ASC_NODE,ARG_OF_PERICENTER,MEAN_ANOMALY,BSTAR,MEAN_MOTION_DOT,MEAN_MOTION_DDOT,TLE_LINE0,TLE_LINE1,TLE_LINE2,SEMIMAJOR_AXIS,PERIOD,APOGEE,PERIGEE,DECAYED
52701.0,STARLINK-4003,PAYLOAD,2022-08-01 14:00:01,15.56158725,0.0001404,53.2176,286.3089,45.9741,270.9696,-0.016421,-0.01063477,0.0,0 STARLINK-4003,1 52701U 22053AX  22213.58334491 -.01063477  00000-0 -16421-1 0  9999,2 52701  53.2176 286.3089 0001404  45.9741 270.9696 15.56158725 12148,6776.9230000000025,92.536,399.74,397.837,0.0
52701.0,STARLINK-4003,PAYLOAD,2022-08-01 22:00:00,15.55398634,0.0001325,53.2175,284.6978,44.6424,340.2898,-0.01688,-0.01062733,0.0,0 STARLINK-4003,1 52701U 22053AX  22213.91667824 -.01062733  00000-0 -16880-1 0  9998,2 52701  53.2175 284.6978 0001325  44.6424 340.2898 15.55398634  1306,6779.130999999999,92.581,401.894,400.098,0.0
52701.0,STARLINK-4003,PAYLOAD,2022-08-02 14:00:01,15.53876701,0.0001636,53.2175,281.4861,44.8858,113.2824,-0.017746,-0.01056874,0.0,0 STARLINK-4003,1 52701U 22053AX  22214.58334491 -.01056874  00000-0 -17746-1 0  9994,2 52701  53.2175 281.4861 0001636  44.8858 113.2824 15.53876701 12303,6783.557,92.671,406.532,404.312,0.0
52701.0,STARLINK-4003,PAYLOAD,2022-08-03 04:00:00,15.52549378,0.0001456,53.2174,278.6781,56.3529,125.4025,-0.0186689999999999,-0.01058964,0.0,0 STARLINK-4003,1 52701U 22053AX  22215.16667824 -.01058964  00000-0 -18669-1 0  9995,2 52701  53.2174 278.6781 0001456  56.3529 125.4025 15.52549378 12397,6787.4230000000025,92.751,410.276,408.299,0.0
52701.0,STARLINK-4003,PAYLOAD,2022-08-03 14:00:01,15.51599897,0.0001242,53.2174,276.6799,52.6456,298.531,-0.01933,-0.01059301,0.0,0 STARLINK-4003,1 52701U 22053AX  22215.58334491 -.01059301  00000-0 -19330-1 0  9994,2 52701  53.2174 276.6799 0001242  52.6456 298.5310 15.51599897  1303,6790.191,92.807,412.9,411.213,0.0
52701.0,STARLINK-4003,PAYLOAD,2022-08-03 20:00:01,15.51009292,0.0001302,53.2172,275.4802,50.7466,257.4038,-0.01883,-0.01014458,0.0,0 STARLINK-4003,1 52701U 22053AX  22215.83334491 -.01014458  00000-0 -18830-1 0  9990,2 52701  53.2172 275.4802 0001302  50.7466 257.4038 15.51009292 12498,6791.915,92.843,414.664,412.896,0.0
52701.0,STARLINK-4003,PAYLOAD,2022-08-03 22:00:01,15.50748751,0.0001193,53.2175,275.0802,47.4007,6.3707,-0.015412,-0.00825863,0.0,0 STARLINK-4003,1 52701U 22053AX  22215.91668981 -.00825863  00000-0 -15412-1 0  9995,2 52701  53.2175 275.0802 0001193  47.4007   6.3707 15.50748751  1300,6792.676,92.858,415.351,413.73,0.0
52701.0,STARLINK-4003,PAYLOAD,2022-08-04 06:00:00,15.50053442,0.0001235,53.2176,273.4851,50.2232,65.0809,-0.0045586,-0.00252513,0.0,0 STARLINK-4003,1 52701U 22053AX  22216.25001157 -.00252513  00000-0 -45586-2 0  9991,2 52701  53.2176 273.4851 0001235  50.2232  65.0809 15.50053442 12556,6794.706999999999,92.9,417.411,415.733,0.0
52701.0,STARLINK-4003,PAYLOAD,2022-08-04 12:00:00,15.49960459,0.0001513,53.2172,272.2926,56.1027,14.9372,-0.0021449,-0.00120653,0.0,0 STARLINK-4003,1 52701U 22053AX  22216.50001157 -.00120653  00000-0 -21449-2 0  9990,2 52701  53.2172 272.2926 0001513  56.1027  14.9372 15.49960459 12593,6794.979,92.906,417.872,415.816,0.0
52701.0,STARLINK-4003,PAYLOAD,2022-08-04 14:00:01,15.49879059,0.0001496,53.2174,271.8938,52.137,124.1706,0.00018971,0.00010327,0.0,0 STARLINK-4003,1 52701U 22053AX  22216.58334491  .00010327  00000-0  18971-3 0  9999,2 52701  53.2174 271.8938 0001496  52.1370 124.1706 15.49879059  1307,6795.217,92.91,418.098,416.065,0.0
52701.0,STARLINK-4003,PAYLOAD,2022-08-04 20:00:01,15.498485,0.0002098,53.2137,270.7058,57.4404,74.3748,-6.3501e-05,-4.05e-05,0.0,0 STARLINK-4003,1 52701U 22053AX  22216.83334491 -.00004050  00000-0 -63501-4 0  9995,2 52701  53.2137 270.7058 0002098  57.4404  74.3748 15.49848500 12640,6795.306,92.912,418.597,415.745,0.0
52701.0,STARLINK-4003,PAYLOAD,2022-08-04 22:00:00,15.49815548,0.0002072,53.2141,270.3068,58.7881,178.2527,0.001376,0.00078238,0.0,0 STARLINK-4003,1 52701U 22053AX  22216.91667824  .00078238  00000-0  13760-2 0  9990,2 52701  53.2141 270.3068 0002072  58.7881 178.2527 15.49815548  1303,6795.401999999999,92.914,418.675,415.859,0.0
52701.0,STARLINK-4003,PAYLOAD,2022-08-05 04:00:00,15.49815146,0.0001855999999999,53.2152,269.1076,58.2834,134.4044,0.004131,0.00240766,0.0,0 STARLINK-4003,1 52701U 22053AX  22217.16667824  .00240766  00000-0  41310-2 0  9997,2 52701  53.2152 269.1076 0001856  58.2834 134.4044 15.49815146 12700,6795.403,92.914,418.53,416.007,0.0
52701.0,STARLINK-4003,PAYLOAD,2022-08-05 12:00:00,15.50355475,0.0001504,53.2167,267.513,61.0632,192.4914,-0.024741,-0.0129192,0.0,0 STARLINK-4003,1 52701U 22053AX  22217.50001157 -.01291920  00000-0 -24741-1 0  9995,2 52701  53.2167 267.5130 0001504  61.0632 192.4914 15.50355475 12758,6793.824000000001,92.882,416.711,414.668,0.0
52701.0,STARLINK-4003,PAYLOAD,2022-08-05 14:00:01,15.5013952,0.0001412,53.2166,267.1135,51.8894,307.0543,-0.025135,-0.01301378,0.0,0 STARLINK-4003,1 52701U 22053AX  22217.58335648 -.01301378  00000-0 -25135-1 0  9995,2 52701  53.2166 267.1135 0001412  51.8894 307.0543 15.50139520  1305,6794.455,92.895,417.28,415.361,0.0
52701.0,STARLINK-4003,PAYLOAD,2022-08-05 22:00:00,15.49207642,0.0001446,53.2175,265.5154,41.14,18.38,-0.021009,-0.01057171,0.0,0 STARLINK-4003,1 52701U 22053AX  22217.91667824 -.01057171  00000-0 -21009-1 0  9991,2 52701  53.2175 265.5154 0001446  41.1400  18.3800 15.49207642 12815,6797.18,92.951,420.028,418.062,0.0
52701.0,STARLINK-4003,PAYLOAD,2022-08-06 11:41:57,15.48820647,0.0002118,53.2147,262.8105,61.6662,298.4561,-0.0028561,-0.00153566,0.0,0 STARLINK-4003,1 52701U 22053AX  22218.48746984 -.00153566  00000-0 -28561-2 0  9994,2 52701  53.2147 262.8105 0002118  61.6662 298.4561 15.48820647 13332,6798.312,92.974,421.617,418.737,0.0
52701.0,STARLINK-4003,PAYLOAD,2022-08-06 20:00:01,15.47119834,0.0001699,53.2172,261.1406,39.9278,91.3992,-0.0226229999999999,-0.01057772,0.0,0 STARLINK-4003,1 52701U 22053AX  22218.83334491 -.01057772  00000-0 -22623-1 0  9994,2 52701  53.2172 261.1406 0001699  39.9278  91.3992 15.47119834 12953,6803.293000000002,93.076,426.314,424.003,0.0
52701.0,STARLINK-4003,PAYLOAD,2022-08-06 22:00:00,15.46928644,0.000157,53.2175,260.7426,44.5869,191.1085,-0.022716,-0.01055269,0.0,0 STARLINK-4003,1 52701U 22053AX  22218.91667824 -.01055269  00000-0 -22716-1 0  9994,2 52701  53.2175 260.7426 0001570  44.5869 191.1085 15.46928644  1304,6803.854,93.088,426.787,424.651,0.0
52701.0,STARLINK-4003,PAYLOAD,2022-08-07 12:00:00,15.45599105,0.0001446,53.2175,257.9682,57.1974,187.4725,-0.023759,-0.01054033,0.0,0 STARLINK-4003,1 52701U 22053AX  22219.50001157 -.01054033  00000-0 -23759-1 0  9997,2 52701  53.2175 257.9682 0001446  57.1974 187.4725 15.45599105 13065,6807.755,93.168,430.605,428.636,0.0
52701.0,STARLINK-4003,PAYLOAD,2022-08-07 12:30:49,15.47284104,0.0001703,53.2135,257.8874,58.5438,301.5737,-0.0052883999999999,-0.00265331,0.0,0 STARLINK-4003,1 52701U 22053AX  22219.52140626 -.00265331  00000-0 -52884-2 0  9990,2 52701  53.2135 257.8874 0001703  58.5438 301.5737 15.47284104 13490,6802.812,93.066,425.835,423.518,0.0
52701.0,STARLINK-4003,PAYLOAD,2022-08-07 22:00:00,15.446497,0.0001433,53.2175,255.9862,41.1437,2.5136,-0.024566,-0.01054714,0.0,0 STARLINK-4003,1 52701U 22053AX  22219.91667824 -.01054714  00000-0 -24566-1 0  9994,2 52701  53.2175 255.9862 0001433  41.1437   2.5136 15.44649700  1309,6810.545,93.225,433.386,431.434,0.0
52701.0,STARLINK-4003,PAYLOAD,2022-08-08 04:00:00,15.44082425,0.0001408,53.2175,254.7999,45.5079,308.855,-0.02512,-0.01057463,0.0,0 STARLINK-4003,1 52701U 22053AX  22220.16667824 -.01057463  00000-0 -25120-1 0  9994,2 52701  53.2175 254.7999 0001408  45.5079 308.8550 15.44082425 13163,6812.2130000000025,93.259,435.037,433.11800000000005,0.0
52701.0,STARLINK-4003,PAYLOAD,2022-08-08 13:22:03,15.44886401,0.0004261999999999,53.2128,252.9757,21.0416,339.0766,-0.0072529,-0.0033222,0.0,0 STARLINK-4003,1 52701U 22053AX  22220.55698802 -.00332220  00000-0 -72529-2 0  9999,2 52701  53.2128 252.9757 0004262  21.0416 339.0766 15.44886401 13653,6809.849,93.211,434.616,428.812,0.0
52701.0,STARLINK-4003,PAYLOAD,2022-08-08 20:00:01,15.42561552,0.000162,53.2176,251.6409,39.9132,60.5569,-0.026378,-0.01069547,0.0,0 STARLINK-4003,1 52701U 22053AX  22220.83335648 -.01069547  00000-0 -26378-1 0  9996,2 52701  53.2176 251.6409 0001620  39.9132  60.5569 15.42561552 13263,6816.689,93.351,439.659,437.45,0.0
52701.0,STARLINK-4003,PAYLOAD,2022-08-08 22:00:00,15.42370546,0.0001599,53.2174,251.246,46.01,157.395,-0.026485,-0.01067181,0.0,0 STARLINK-4003,1 52701U 22053AX  22220.91667824 -.01067181  00000-0 -26485-1 0  9990,2 52701  53.2174 251.2460 0001599  46.0100 157.3950 15.42370546  1305,6817.252,93.363,440.207,438.027,0.0
52701.0,STARLINK-4003,PAYLOAD,2022-08-09 12:00:00,15.41039358,0.0001754,53.2176,248.4908,42.4488,160.3483,-0.027592,-0.01063528,0.0,0 STARLINK-4003,1 52701U 22053AX  22221.50001157 -.01063528  00000-0 -27592-1 0  9998,2 52701  53.2176 248.4908 0001754  42.4488 160.3483 15.41039358 13371,6821.178000000001,93.443,444.239,441.846,0.0
52701.0,STARLINK-4003,PAYLOAD,2022-08-09 14:00:01,15.40853601,0.0001561999999999,53.2173,248.097,39.6513,265.6864,-0.027933,-0.01069449,0.0,0 STARLINK-4003,1 52701U 22053AX  22221.58334491 -.01069449  00000-0 -27933-1 0  9993,2 52701  53.2173 248.0970 0001562  39.6513 265.6864 15.40853601  1303,6821.726,93.455,444.656,442.525,0.0
52701.0,STARLINK-4003,PAYLOAD,2022-08-09 22:00:00,15.40091698,0.0001666999999999,53.2174,246.5223,32.1497,322.7891,-0.028576,-0.010669,0.0,0 STARLINK-4003,1 52701U 22053AX  22221.91667824 -.01066900  00000-0 -28576-1 0  9992,2 52701  53.2174 246.5223 0001667  32.1497 322.7891 15.40091698  1308,6823.975,93.501,446.978,444.703,0.0
